COSMOS 2433 (720)       
1 32275U 07052A   22348.49952955 -.00000041  00000+0  00000+0 0  9994
2 32275  66.0681 358.6963 0005300 251.3570 254.8716  2.13104137117801
COSMOS 2432 (719)       
1 32276U 07052B   22348.54110530 -.00000041  00000+0  00000+0 0  9996
2 32276  66.0836 358.7999 0010855 313.6374 172.2790  2.13103344117803
COSMOS 2434 (721)       
1 32393U 07065A   22348.22430032  .00000024  00000+0  00000+0 0  9997
2 32393  64.3596 235.2951 0003220  69.4534 115.8109  2.13103148116501
COSMOS 2436 (723)       
1 32395U 07065C   22347.59787985  .00000023  00000+0  00000+0 0  9999
2 32395  64.3678 235.3754 0016532   2.4953 197.9149  2.13102810116429
COSMOS 2456 (730)       
1 36111U 09070A   22348.23313181  .00000048  00000+0  00000+0 0  9999
2 36111  64.4040 114.8794 0001492 320.1852  34.9116  2.13099043101167
COSMOS 2457 (733)       
1 36112U 09070B   22348.04660670  .00000047  00000+0  00000+0 0  9996
2 36112  64.3876 114.7571 0006710 153.9264 186.7919  2.13101277101163
COSMOS 2460 (732)       
1 36402U 10007C   22347.60928082 -.00000046  00000+0  00000+0 0  9995
2 36402  65.9372 357.4855 0002352 258.2784  92.3115  2.13106312 99507
COSMOS 2464 (736)       
1 37139U 10041C   22348.40378861  .00000025  00000+0  00000+0 0  9990
2 37139  63.9580 234.2750 0030525  11.0605 168.8358  2.13100988 95585
COSMOS 2476 (744)       
1 37867U 11064A   22348.36379049  .00000052  00000+0  00000+0 0  9998
2 37867  64.6893 116.3010 0021281 230.6674 131.6985  2.13101704 86526
COSMOS 2477 (745)       
1 37868U 11064B   22347.60841226  .00000048  00000+0  00000+0 0  9991
2 37868  64.6970 116.3935 0018376 230.6192  90.2731  2.13101532 86455
COSMOS 2475 (743)       
1 37869U 11064C   22348.61508859  .00000053  00000+0  00000+0 0  9992
2 37869  64.7048 116.3687 0022041 249.9270  81.4593  2.13101731 86483
COSMOS 2485 (747)       
1 39155U 13019A   22348.32714995  .00000053  00000+0  00000+0 0  9992
2 39155  64.8515 116.7690 0021737 226.5697 152.0874  2.13101756 74993
COSMOS 2492 (754)       
1 39620U 14012A   22348.48777716 -.00000041  00000+0  00000+0 0  9998
2 39620  65.8223 357.1123 0014092 313.0071 223.1963  2.13103140 67948
COSMOS 2500 (755)       
1 40001U 14032A   22348.41246538 -.00000041  00000+0  00000+0 0  9991
2 40001  65.7625 356.9637 0008109 217.6486 118.9217  2.13102311 66150
COSMOS 2501 (702K)      
1 40315U 14075A   22348.56307461  .00000024  00000+0  00000+0 0  9995
2 40315  63.6639 234.8694 0017655 208.3096  52.6792  2.13101313 62561
COSMOS 2514 (751)       
1 41330U 16008A   22348.20288005 -.00000043  00000+0  00000+0 0  9996
2 41330  65.5611 356.6156 0011776 223.3885 136.5567  2.13102705 53329
COSMOS 2516 (753)       
1 41554U 16032A   22346.44791880  .00000026  00000+0  00000+0 0  9995
2 41554  63.8898 235.2704 0014102 213.7838 146.2093  2.13106441 50895
COSMOS 2522 (752)       
1 42939U 17055A   22348.26126557  .00000023  00000+0  00000+0 0  9991
2 42939  64.1243 235.6546 0006860 245.5237 279.4844  2.13102093 40685
COSMOS 2527 (756)       
1 43508U 18053A   22348.54295368  .00000054  00000+0  00000+0 0  9995
2 43508  65.0141 116.7994 0007872 214.3640 198.7531  2.13102426 34989
COSMOS 2529 (757)       
1 43687U 18086A   22348.33034394  .00000023  00000+0  00000+0 0  9992
2 43687  64.3381 236.0165 0008870 270.7445 262.7480  2.13102099 31998
COSMOS 2534 (758)       
1 44299U 19030A   22347.74592962  .00000023  00000+0  00000+0 0  9996
2 44299  64.4113 235.9372 0011716 291.4221 288.1254  2.13101865 27621
COSMOS 2544 (759)       
1 44850U 19088A   22348.50769811  .00000054  00000+0  16595+1 0  9997
2 44850  64.9997 116.6490 0011280 249.7004 179.6852  2.13102212 23414
COSMOS 2545 (760)       
1 45358U 20018A   22348.38938256 -.00000044  00000+0  00000+0 0  9996
2 45358  64.8997 357.0711 0011628 249.4782 298.3967  2.13102648 21361
COSMOS 2547 (705K)      
1 46805U 20075A   22348.51643552  .00000024  00000+0  00000+0 0  9991
2 46805  64.6370 235.3892 0006262 246.2064 252.7479  2.13102944 16619
COSMOS 2557 (706K)      
1 52984U 22075A   22347.24750172 -.00000052  00000+0  10000-3 0  9991
2 52984  64.8066 359.2995 0013654 279.0802 203.6333  2.13101711  3380
COSMOS 2559 (707K)      
1 54031U 22130A   22348.61052538 -.00000044  00000+0  00000+0 0  9997
2 54031  64.7774 359.3891 0007677 230.8055 262.8951  2.13101330  1398
COSMOS 2564 (761)       
1 54377U 22161A   22343.65354395  .00000039  00000+0  00000+0 0  9992
2 54377  64.7765 235.5555 0026905 231.5530 268.4925  2.13731023   237
